start=new Date('2022-06-24T00:00:00.000Z').valueOf();
sats=[{"ECCENTRICITY":"0.00052140","NORAD_CAT_ID":"44238","SEMIMAJOR_AXIS":"6836.423","REF_FRAME":"TEME","TIME_SYSTEM":"UTC","OBJECT_TYPE":"PAYLOAD","MEAN_ANOMALY":"283.5623","MEAN_MOTION_DDOT":"0.0000000000000","PERIAPSIS":"454.723","APOAPSIS":"461.852","CLASSIFICATION_TYPE":"U","COUNTRY_CODE":"US","FILE":"3500654","BSTAR":"0.00200780000000","REV_AT_EPOCH":"17081","INCLINATION":"53.0067","PERIOD":"93.757","RA_OF_ASC_NODE":"82.0644","MEAN_ELEMENT_THEORY":"SGP4","RCS_SIZE":"LARGE","EPOCH":"2022-06-23T11:04:46.517664","MEAN_MOTION_DOT":"0.00071462","LAUNCH_DATE":"2019-05-24","ELEMENT_SET_NO":"999","CENTER_NAME":"EARTH","EPHEMERIS_TYPE":"0","GP_ID":"206690468","OBJECT_ID":"2019-029D","ARG_OF_PERICENTER":"76.5959","SITE":"AFETR","MEAN_MOTION":"15.35887412","DECAY_DATE":null,"OBJECT_NAME":"STARLINK-24","TLE_LINE1":"1 44238U 19029D   22174.46164951  .00071462  00000-0  20078-2 0  9993","TLE_LINE2":"2 44238  53.0067  82.0644 0005214  76.5959 283.5623 15.35887412170811"},{"EPOCH":"2022-06-23T07:20:46.498272","RCS_SIZE":"LARGE","MEAN_ELEMENT_THEORY":"SGP4","RA_OF_ASC_NODE":"33.6571","PERIOD":"92.144","INCLINATION":"52.9667","MEAN_MOTION_DOT":"0.00168905","MEAN_MOTION":"15.62768482","SITE":"AFETR","OBJECT_ID":"2019-029Q","GP_ID":"206682567","ARG_OF_PERICENTER":"198.9911","EPHEMERIS_TYPE":"0","CENTER_NAME":"EARTH","ELEMENT_SET_NO":"999","LAUNCH_DATE":"2019-05-24","TLE_LINE2":"2 44249  52.9667  33.6571 0010484 198.9911 161.0712 15.62768482170500","TLE_LINE1":"1 44249U 19029Q   22174.30609373  .00168905  00000-0  18071-2 0  9999","OBJECT_NAME":"STARLINK-61","DECAY_DATE":null,"TIME_SYSTEM":"UTC","SEMIMAJOR_AXIS":"6757.801","REF_FRAME":"TEME","ECCENTRICITY":"0.00104840","NORAD_CAT_ID":"44249","APOAPSIS":"386.751","PERIAPSIS":"372.581","MEAN_MOTION_DDOT":"0.0000000000000","MEAN_ANOMALY":"161.0712","OBJECT_TYPE":"PAYLOAD","REV_AT_EPOCH":"17050","BSTAR":"0.00180710000000","FILE":"3500539","COUNTRY_CODE":"US","CLASSIFICATION_TYPE":"U"},{"ECCENTRICITY":"0.00054220","NORAD_CAT_ID":"44252","REF_FRAME":"TEME","SEMIMAJOR_AXIS":"6829.301","TIME_SYSTEM":"UTC","MEAN_ANOMALY":"293.9867","OBJECT_TYPE":"PAYLOAD","MEAN_MOTION_DDOT":"0.0000000000000","PERIAPSIS":"447.463","APOAPSIS":"454.869","CLASSIFICATION_TYPE":"U","COUNTRY_CODE":"US","FILE":"3500572","BSTAR":"0.00182240000000","REV_AT_EPOCH":"17087","INCLINATION":"52.9970","PERIOD":"93.610","RA_OF_ASC_NODE":"77.6906","MEAN_ELEMENT_THEORY":"SGP4","EPOCH":"2022-06-23T10:55:50.674368","RCS_SIZE":"LARGE","MEAN_MOTION_DOT":"0.00070076","LAUNCH_DATE":"2019-05-24","ELEMENT_SET_NO":"999","EPHEMERIS_TYPE":"0","CENTER_NAME":"EARTH","OBJECT_ID":"2019-029T","GP_ID":"206688843","ARG_OF_PERICENTER":"66.1703","MEAN_MOTION":"15.38290645","SITE":"AFETR","DECAY_DATE":null,"OBJECT_NAME":"STARLINK-71","TLE_LINE1":"1 44252U 19029T   22174.45544762  .00070076  00000-0  18224-2 0  9990","TLE_LINE2":"2 44252  52.9970  77.6906 0005422  66.1703 293.9867 15.38290645170872"},{"EPOCH":"2022-06-23T04:37:08.603616","RCS_SIZE":"LARGE","MEAN_ELEMENT_THEORY":"SGP4","RA_OF_ASC_NODE":"151.6686","INCLINATION":"53.0554","PERIOD":"95.593","MEAN_MOTION_DOT":"0.00000008","SITE":"AFETR","MEAN_MOTION":"15.06393031","OBJECT_ID":"2019-074A","GP_ID":"206682605","ARG_OF_PERICENTER":"65.3684","ELEMENT_SET_NO":"999","EPHEMERIS_TYPE":"0","CENTER_NAME":"EARTH","LAUNCH_DATE":"2019-11-11","TLE_LINE2":"2 44713  53.0554 151.6686 0001946  65.3684 294.7508 15.06393031144441","OBJECT_NAME":"STARLINK-1007","TLE_LINE1":"1 44713U 19074A   22174.19246069  .00000008  00000-0  19469-4 0  9994","DECAY_DATE":null,"TIME_SYSTEM":"UTC","SEMIMAJOR_AXIS":"6925.370","REF_FRAME":"TEME","ECCENTRICITY":"0.00019460","NORAD_CAT_ID":"44713","PERIAPSIS":"545.887","MEAN_MOTION_DDOT":"0.0000000000000","APOAPSIS":"548.583","OBJECT_TYPE":"PAYLOAD","MEAN_ANOMALY":"294.7508","BSTAR":"0.00001946900000","REV_AT_EPOCH":"14444","FILE":"3500539","COUNTRY_CODE":"US","CLASSIFICATION_TYPE":"U"},{"SITE":"AFETR","MEAN_MOTION":"15.06405601","GP_ID":"206682857","ARG_OF_PERICENTER":"59.0232","OBJECT_ID":"2019-074B","EPHEMERIS_TYPE":"0","CENTER_NAME":"EARTH","ELEMENT_SET_NO":"999","LAUNCH_DATE":"2019-11-11","TLE_LINE2":"2 44714  53.0531 151.1900 0001927  59.0232 301.0946 15.06405601144466","TLE_LINE1":"1 44714U 19074B   22174.30397787  .00000281  00000-0  37756-4 0  9994","OBJECT_NAME":"STARLINK-1008","DECAY_DATE":null,"EPOCH":"2022-06-23T07:17:43.687968","RCS_SIZE":"LARGE","MEAN_ELEMENT_THEORY":"SGP4","RA_OF_ASC_NODE":"151.1900","PERIOD":"95.592","INCLINATION":"53.0531","MEAN_MOTION_DOT":"0.00000281","APOAPSIS":"548.531","MEAN_MOTION_DDOT":"0.0000000000000","PERIAPSIS":"545.862","MEAN_ANOMALY":"301.0946","OBJECT_TYPE":"PAYLOAD","REV_AT_EPOCH":"14446","BSTAR":"0.00003775600000","FILE":"3500539","COUNTRY_CODE":"US","CLASSIFICATION_TYPE":"U","TIME_SYSTEM":"UTC","REF_FRAME":"TEME","SEMIMAJOR_AXIS":"6925.331","ECCENTRICITY":"0.00019270","NORAD_CAT_ID":"44714"},{"MEAN_ELEMENT_THEORY":"SGP4","EPOCH":"2022-06-23T14:59:29.828256","RCS_SIZE":"LARGE","PERIOD":"95.592","INCLINATION":"53.0549","RA_OF_ASC_NODE":"149.7526","MEAN_MOTION_DOT":"-0.00001059","ARG_OF_PERICENTER":"70.7450","GP_ID":"206693765","OBJECT_ID":"2019-074C","MEAN_MOTION":"15.06400444","SITE":"AFETR","LAUNCH_DATE":"2019-11-11","EPHEMERIS_TYPE":"0","CENTER_NAME":"EARTH","ELEMENT_SET_NO":"999","TLE_LINE2":"2 44715  53.0549 149.7526 0001635  70.7450 289.3716 15.06400444144677","DECAY_DATE":null,"TLE_LINE1":"1 44715U 19074C   22174.62465079 -.00001059  00000-0 -52195-4 0  9990","OBJECT_NAME":"STARLINK-1009","TIME_SYSTEM":"UTC","ECCENTRICITY":"0.00016350","NORAD_CAT_ID":"44715","SEMIMAJOR_AXIS":"6925.347","REF_FRAME":"TEME","APOAPSIS":"548.344","MEAN_MOTION_DDOT":"0.0000000000000","PERIAPSIS":"546.080","OBJECT_TYPE":"PAYLOAD","MEAN_ANOMALY":"289.3716","FILE":"3500782","REV_AT_EPOCH":"14467","BSTAR":"-0.00005219500000","CLASSIFICATION_TYPE":"U","COUNTRY_CODE":"US"},{"GP_ID":"206681856","ARG_OF_PERICENTER":"73.6197","OBJECT_ID":"2019-074D","SITE":"AFETR","MEAN_MOTION":"15.06392098","LAUNCH_DATE":"2019-11-11","EPHEMERIS_TYPE":"0","CENTER_NAME":"EARTH","ELEMENT_SET_NO":"999","TLE_LINE2":"2 44716  53.0529 151.1601 0001815  73.6197 286.4992 15.06392098144441","DECAY_DATE":null,"TLE_LINE1":"1 44716U 19074D   22174.31135706 -.00000184  00000-0  65333-5 0  9994","OBJECT_NAME":"STARLINK-1010","MEAN_ELEMENT_THEORY":"SGP4","RCS_SIZE":"LARGE","EPOCH":"2022-06-23T07:28:21.249984","PERIOD":"95.593","INCLINATION":"53.0529","RA_OF_ASC_NODE":"151.1601","MEAN_MOTION_DOT":"-0.00000184","APOAPSIS":"548.495","MEAN_MOTION_DDOT":"0.0000000000000","PERIAPSIS":"545.981","OBJECT_TYPE":"PAYLOAD","MEAN_ANOMALY":"286.4992","FILE":"3500539","REV_AT_EPOCH":"14444","BSTAR":"0.00000653330000","CLASSIFICATION_TYPE":"U","COUNTRY_CODE":"US","TIME_SYSTEM":"UTC","ECCENTRICITY":"0.00018150","NORAD_CAT_ID":"44716","SEMIMAJOR_AXIS":"6925.373","REF_FRAME":"TEME"},{"EPHEMERIS_TYPE":"0","CENTER_NAME":"EARTH","ELEMENT_SET_NO":"999","LAUNCH_DATE":"2019-11-11","MEAN_MOTION":"15.06399901","SITE":"AFETR","OBJECT_ID":"2019-074E","GP_ID":"206682106","ARG_OF_PERICENTER":"48.4235","TLE_LINE1":"1 44717U 19074E   22174.37585268  .00000286  00000-0  38121-4 0  9999","OBJECT_NAME":"STARLINK-1011","DECAY_DATE":null,"TLE_LINE2":"2 44717  53.0546 170.8479 0002373  48.4235 311.6957 15.06399901144199","RA_OF_ASC_NODE":"170.8479","PERIOD":"95.592","INCLINATION":"53.0546","EPOCH":"2022-06-23T09:01:13.671552","RCS_SIZE":"LARGE","MEAN_ELEMENT_THEORY":"SGP4","MEAN_MOTION_DOT":"0.00000286","OBJECT_TYPE":"PAYLOAD","MEAN_ANOMALY":"311.6957","APOAPSIS":"548.857","PERIAPSIS":"545.570","MEAN_MOTION_DDOT":"0.0000000000000","COUNTRY_CODE":"US","CLASSIFICATION_TYPE":"U","REV_AT_EPOCH":"14419","BSTAR":"0.00003812100000","FILE":"3500539","REF_FRAME":"TEME","SEMIMAJOR_AXIS":"6925.349","NORAD_CAT_ID":"44717","ECCENTRICITY":"0.00023730","TIME_SYSTEM":"UTC"},{"TLE_LINE2":"2 44718  53.0554 150.9929 0001640  68.3728 291.7436 15.06401086144460","DECAY_DATE":null,"OBJECT_NAME":"STARLINK-1012","TLE_LINE1":"1 44718U 19074F   22174.34820713  .00001826  00000-0  14146-3 0  9995","GP_ID":"206683357","ARG_OF_PERICENTER":"68.3728","OBJECT_ID":"2019-074F","SITE":"AFETR","MEAN_MOTION":"15.06401086","LAUNCH_DATE":"2019-11-11","ELEMENT_SET_NO":"999","EPHEMERIS_TYPE":"0","CENTER_NAME":"EARTH","MEAN_MOTION_DOT":"0.00001826","MEAN_ELEMENT_THEORY":"SGP4","RCS_SIZE":"LARGE","EPOCH":"2022-06-23T08:21:25.096032","INCLINATION":"53.0554","PERIOD":"95.592","RA_OF_ASC_NODE":"150.9929","FILE":"3500539","BSTAR":"0.00014146000000","REV_AT_EPOCH":"14446","CLASSIFICATION_TYPE":"U","COUNTRY_CODE":"US","MEAN_MOTION_DDOT":"0.0000000000000","PERIAPSIS":"546.074","APOAPSIS":"548.346","OBJECT_TYPE":"PAYLOAD","MEAN_ANOMALY":"291.7436","TIME_SYSTEM":"UTC","NORAD_CAT_ID":"44718","ECCENTRICITY":"0.00016400","SEMIMAJOR_AXIS":"6925.345","REF_FRAME":"TEME"},{"ELEMENT_SET_NO":"999","CENTER_NAME":"EARTH","EPHEMERIS_TYPE":"0","LAUNCH_DATE":"2019-11-11","SITE":"AFETR","MEAN_MOTION":"15.06404947","OBJECT_ID":"2019-074G","GP_ID":"206683108","ARG_OF_PERICENTER":"56.4004","OBJECT_NAME":"STARLINK-1013","TLE_LINE1":"1 44719U 19074G   22174.35558183 -.00000079  00000-0  13590-4 0  9999","DECAY_DATE":null,"TLE_LINE2":"2 44719  53.0537 150.9581 0002277  56.4004 303.7202 15.06404947145597","RA_OF_ASC_NODE":"150.9581","INCLINATION":"53.0537","PERIOD":"95.592","RCS_SIZE":"LARGE","EPOCH":"2022-06-23T08:32:02.270112","MEAN_ELEMENT_THEORY":"SGP4","MEAN_MOTION_DOT":"-0.00000079","MEAN_ANOMALY":"303.7202","OBJECT_TYPE":"PAYLOAD","PERIAPSIS":"545.621","MEAN_MOTION_DDOT":"0.0000000000000","APOAPSIS":"548.775","COUNTRY_CODE":"US","CLASSIFICATION_TYPE":"U","BSTAR":"0.00001359000000","REV_AT_EPOCH":"14559","FILE":"3500539","REF_FRAME":"TEME","SEMIMAJOR_AXIS":"6925.333","ECCENTRICITY":"0.00022770","NORAD_CAT_ID":"44719","TIME_SYSTEM":"UTC"}];
